OBJECT_NAME,OBJECT_ID,EPOCH,MEAN_MOTION,ECCENTRICITY,INCLINATION,RA_OF_ASC_NODE,ARG_OF_PERICENTER,MEAN_ANOMALY,EPHEMERIS_TYPE,CLASSIFICATION_TYPE,NORAD_CAT_ID,ELEMENT_SET_NO,REV_AT_EPOCH,BSTAR,MEAN_MOTION_DOT,MEAN_MOTION_DDOT
INMARSAT 4-F3,2008-039A,2026-06-11T03:10:41.187360,1.00272123,.00028141,4.2879,31.6061,51.9673,125.5696,0,U,33278,999,4648,0,-.126E-5,0
NIMIQ 4,2008-044A,2026-06-11T03:53:02.786784,1.00269228,.00019999,0.0205,303.2842,141.1240,151.3486,0,U,33373,999,6492,0,-.203E-5,0
GALAXY 19 (G-19),2008-045A,2026-06-11T00:48:09.323136,1.00270808,.00026183,0.0155,295.3035,144.8139,94.3158,0,U,33376,999,6484,0,-.122E-5,0
ASTRA 1M,2008-057A,2026-06-11T04:46:51.875328,1.00269219,.00046726,0.2802,82.3593,20.7556,247.5317,0,U,33436,999,4567,0,.137E-5,0
EUTELSAT HOTBIRD 13C,2008-065A,2026-06-11T02:44:24.612000,1.00269684,.0003553,2.9339,79.2613,3.1167,167.8779,0,U,33459,999,4728,0,-.267E-5,0
EXPRESS-AM44,2009-007A,2026-06-11T04:38:15.200736,1.00271495,.00041366,3.4469,78.4713,356.5748,243.0623,0,U,33595,999,5222,0,-.73E-6,0
NSS-9,2009-008A,2026-06-11T05:33:38.778048,1.00272015,.000199,1.2455,82.7107,346.3639,96.9838,0,U,33749,999,6346,0,.88E-6,0
TELSTAR 11N,2009-009A,2026-06-11T05:15:41.279328,1.00270060,.00021876,0.0183,357.1496,80.7911,223.0005,0,U,34111,999,4618,0,-.234E-5,0
WGS F2 (USA 204),2009-017A,2026-06-11T03:15:10.026144,1.00271697,.00003674,0.0177,336.5504,277.8487,111.3981,0,U,34713,999,4555,0,.85E-6,0
SES-7 (PROTOSTAR 2),2009-027A,2026-06-11T00:04:19.728768,1.00271966,.00008339,0.0467,73.8317,99.5038,195.3883,0,U,34941,999,6256,0,-.328E-5,0
MEASAT-3A,2009-032A,2026-06-11T05:08:38.764320,1.00271331,.00029036,0.0262,16.3535,60.6818,59.6945,0,U,35362,999,797,0,-.93E-6,0
GOES 14,2009-033A,2026-06-11T05:22:47.320320,1.00112869,.00018153,1.6737,83.1128,7.9135,34.5008,0,U,35491,999,653,0,-.251E-5,0
FM-5,2009-034A,2026-06-11T03:53:38.786208,1.00270319,.00006744,0.0149,298.4142,350.0802,303.2820,0,U,35493,999,4658,0,-.183E-5,0
TERRESTAR-1,2009-035A,2026-06-10T10:45:38.663424,1.00270569,.00025885,5.1785,48.7967,28.6350,231.7779,0,U,35496,999,6206,0,-.42E-6,0
ASIASAT 5,2009-042A,2026-06-11T00:07:21.916128,1.00267809,.00014516,0.0269,287.3029,135.1077,299.2874,0,U,35696,999,6164,0,-.289E-5,0
JCSAT-12 (JCSAT-RA),2009-044A,2026-06-11T05:19:02.678592,1.00268739,.00007905,0.0099,3.1301,329.6523,138.5949,0,U,35755,999,6155,0,-.311E-5,0
OPTUS D3,2009-044B,2026-06-10T22:35:15.754848,1.00269919,.00029094,0.8667,269.5369,166.9503,317.7644,0,U,35756,999,6150,0,-.128E-5,0
NIMIQ 5,2009-050A,2026-06-11T04:33:41.704128,1.00270911,.00028041,0.0277,279.8062,156.7600,178.7042,0,U,35873,999,6128,0,-.24E-5,0
AMAZONAS 2,2009-054A,2026-06-11T04:33:41.688576,1.00270821,.00032827,1.7992,83.1261,353.3807,179.4747,0,U,35942,999,6112,0,-.242E-5,0
COMSATBW-1,2009-054B,2026-06-11T03:16:39.882144,1.00272026,.00028488,0.0659,77.1215,8.7103,285.8288,0,U,35943,999,6124,0,.42E-6,0
NSS-12,2009-058A,2026-06-11T04:57:43.333920,1.00271304,.00046419,0.0744,66.6671,342.6807,341.6325,0,U,36032,999,6085,0,.89E-6,0
THOR 6,2009-058B,2026-06-11T04:41:07.426176,1.00271558,.00022345,0.0115,271.1250,202.4334,215.4206,0,U,36033,999,6094,0,.7E-7,0
INTELSAT 14 (IS-14),2009-064A,2026-06-11T02:45:54.468000,1.00269507,.00027029,0.0174,357.9227,100.1504,157.8674,0,U,36097,999,6054,0,-.256E-5,0
EUTELSAT 36B,2009-065A,2026-06-11T04:55:51.013920,1.00271538,.00059019,0.4753,81.0277,357.9677,305.0056,0,U,36101,999,6064,0,.129E-5,0
INTELSAT 15 (IS-15),2009-067A,2026-06-10T23:57:42.863328,1.00270566,.000216,0.0159,1.4448,83.3005,259.1829,0,U,36106,999,4116,0,-.168E-5,0
WGS F3 (USA 211),2009-068A,2026-06-11T04:17:55.115232,1.00275510,.00002693,0.3312,85.9459,229.0050,239.0855,0,U,36108,999,4653,0,.81E-6,0
DIRECTV 12,2009-075A,2026-06-10T11:05:33.973728,1.00272017,.00003017,0.0318,158.8061,239.6820,284.0043,0,U,36131,999,4648,0,-.86E-6,0
BEIDOU-2 G1,2010-001A,2026-06-10T22:30:53.674272,1.00273295,.00025038,4.2776,60.4264,305.1918,11.8721,0,U,36287,999,6010,0,-.264E-5,0
SDO,2010-005A,2026-06-10T09:46:09.208992,1.00270525,.00015956,34.6369,86.4462,53.5104,163.3265,0,U,36395,999,5999,0,-.68E-6,0
INTELSAT 16 (IS-16),2010-006A,2026-06-11T03:45:38.617344,1.00271518,.00019352,0.0087,316.9910,140.2745,142.4586,0,U,36397,999,5959,0,-.227E-5,0
EWS-G2 (GOES 15),2010-008A,2026-06-11T03:16:54.857856,1.00275480,.00054201,1.2604,82.9503,40.3906,249.0136,0,U,36411,999,5957,0,.35E-6,0
ECHOSTAR 14,2010-010A,2026-06-11T05:50:10.650912,1.00272158,.00023633,0.0536,89.7580,9.1576,129.3286,0,U,36499,999,4649,0,.17E-6,0
