1 33278U 08039A 26162.13242115 -.00000126 00000+0 00000+0 0 9997 
2 33278 4.2879 31.6061 0002814 51.9673 125.5696 1.00272123 46482 
1 33373U 08044A 26162.16183781 -.00000203 00000+0 00000+0 0 9991 
2 33373 0.0205 303.2842 0001999 141.1240 151.3486 1.00269228 64920 
1 33376U 08045A 26162.03344124 -.00000122 00000+0 00000+0 0 9991 
2 33376 0.0155 295.3035 0002618 144.8139 94.3158 1.00270808 64847 
1 33436U 08057A 26162.19921152 .00000137 00000+0 00000+0 0 9995 
2 33436 0.2802 82.3593 0004672 20.7556 247.5317 1.00269219 45678 
1 33459U 08065A 26162.11417375 -.00000267 00000+0 00000+0 0 9993 
2 33459 2.9339 79.2613 0003553 3.1167 167.8779 1.00269684 47286 
1 33595U 09007A 26162.19323149 -.00000073 00000+0 00000+0 0 9999 
2 33595 3.4469 78.4713 0004136 356.5748 243.0623 1.00271495 52225 
1 33749U 09008A 26162.23169882 .00000088 00000+0 00000+0 0 9993 
2 33749 1.2455 82.7107 0001990 346.3639 96.9838 1.00272015 63463 
1 34111U 09009A 26162.21922777 -.00000234 00000+0 00000+0 0 9990 
2 34111 0.0183 357.1496 0002187 80.7911 223.0005 1.00270060 46180 
1 34713U 09017A 26162.13553271 .00000085 00000+0 00000+0 0 9990 
2 34713 0.0177 336.5504 0000367 277.8487 111.3981 1.00271697 45556 
1 34941U 09027A 26162.00300612 -.00000328 00000+0 00000+0 0 9990 
2 34941 0.0467 73.8317 0000833 99.5038 195.3883 1.00271966 62565 
1 35362U 09032A 26162.21433755 -.00000093 00000+0 00000+0 0 9991 
2 35362 0.0262 16.3535 0002903 60.6818 59.6945 1.00271331 7976 
1 35491U 09033A 26162.22415880 -.00000251 00000+0 00000+0 0 9991 
2 35491 1.6737 83.1128 0001815 7.9135 34.5008 1.00112869 6533 
1 35493U 09034A 26162.16225447 -.00000183 00000+0 00000+0 0 9999 
2 35493 0.0149 298.4142 0000674 350.0802 303.2820 1.00270319 46589 
1 35496U 09035A 26161.44836416 -.00000042 00000+0 00000+0 0 9991 
2 35496 5.1785 48.7967 0002588 28.6350 231.7779 1.00270569 62063 
1 35696U 09042A 26162.00511477 -.00000289 00000+0 00000+0 0 9994 
2 35696 0.0269 287.3029 0001451 135.1077 299.2874 1.00267809 61645 
1 35755U 09044A 26162.22155878 -.00000311 00000+0 00000+0 0 9991 
2 35755 0.0099 3.1301 0000790 329.6523 138.5949 1.00268739 61551 
1 35756U 09044B 26161.94115457 -.00000128 00000+0 00000+0 0 9995 
2 35756 0.8667 269.5369 0002909 166.9503 317.7644 1.00269919 61506 
1 35873U 09050A 26162.19006602 -.00000240 00000+0 00000+0 0 9996 
2 35873 0.0277 279.8062 0002804 156.7600 178.7042 1.00270911 61284 
1 35942U 09054A 26162.19006584 -.00000242 00000+0 00000+0 0 9998 
2 35942 1.7992 83.1261 0003282 353.3807 179.4747 1.00270821 61128 
1 35943U 09054B 26162.13657271 .00000042 00000+0 00000+0 0 9995 
2 35943 0.0659 77.1215 0002848 8.7103 285.8288 1.00272026 61244 
1 36032U 09058A 26162.20675155 .00000089 00000+0 00000+0 0 9999 
2 36032 0.0744 66.6671 0004641 342.6807 341.6325 1.00271304 60859 
1 36033U 09058B 26162.19522484 .00000007 00000+0 00000+0 0 9994 
2 36033 0.0115 271.1250 0002234 202.4334 215.4206 1.00271558 60949 
1 36097U 09064A 26162.11521375 -.00000256 00000+0 00000+0 0 9998 
2 36097 0.0174 357.9227 0002702 100.1504 157.8674 1.00269507 60549 
1 36101U 09065A 26162.20545155 .00000129 00000+0 00000+0 0 9995 
2 36101 0.4753 81.0277 0005901 357.9677 305.0056 1.00271538 60648 
1 36106U 09067A 26161.99841277 -.00000168 00000+0 00000+0 0 9995 
2 36106 0.0159 1.4448 0002160 83.3005 259.1829 1.00270566 41167 
1 36108U 09068A 26162.17911013 .00000081 00000+0 00000+0 0 9998 
2 36108 0.3312 85.9459 0000269 229.0050 239.0855 1.00275510 46535 
1 36131U 09075A 26161.46219877 -.00000086 00000+0 00000+0 0 9998 
2 36131 0.0318 158.8061 0000301 239.6820 284.0043 1.00272017 46484 
1 36287U 10001A 26161.93812123 -.00000264 00000+0 00000+0 0 9994 
2 36287 4.2776 60.4264 0002503 305.1918 11.8721 1.00273295 60109 
1 36395U 10005A 26161.40705103 -.00000068 00000+0 00000+0 0 9991 
2 36395 34.6369 86.4462 0001595 53.5104 163.3265 1.00270525 59997 
1 36397U 10006A 26162.15669696 -.00000227 00000+0 00000+0 0 9990 
2 36397 0.0087 316.9910 0001935 140.2745 142.4586 1.00271518 59598 
1 36411U 10008A 26162.13674604 .00000035 00000+0 00000+0 0 9998 
2 36411 1.2604 82.9503 0005420 40.3906 249.0136 1.00275480 59578 
1 36499U 10010A 26162.24317883 .00000017 00000+0 00000+0 0 9992 
2 36499 0.0536 89.7580 0002363 9.1576 129.3286 1.00272158 46496 
